NORAD_CAT_ID,OBJECT_NAME,OBJECT_TYPE,EPOCH,MEAN_MOTION,ECCENTRICITY,INCLINATION,RA_OF_ASC_NODE,ARG_OF_PERICENTER,MEAN_ANOMALY,BSTAR,MEAN_MOTION_DOT,MEAN_MOTION_DDOT,TLE_LINE0,TLE_LINE1,TLE_LINE2,SEMIMAJOR_AXIS,PERIOD,APOGEE,PERIGEE,DECAYED
51757.0,STARLINK-3459,PAYLOAD,2023-01-19 10:27:33,15.08881789,0.0001426,53.2143,50.3825,79.196,280.9192,0.0019,0.00030115,0.0,0 STARLINK-3459,1 51757U 22016AV  23019.43580047  .00030115  00000-0  19000-2 0  9994,2 51757  53.2143  50.3825 0001426  79.1960 280.9192 15.08881789 51926,6917.753000000001,95.435,540.604,538.631,0.0
51757.0,STARLINK-3459,PAYLOAD,2023-01-19 12:02:56,15.0889046,0.0001403,53.214,50.0838,78.3939,281.721,0.002017,0.00032003,0.0,0 STARLINK-3459,1 51757U 22016AV  23019.50203788  .00032003  00000-0  20170-2 0  9994,2 51757  53.2140  50.0838 0001403  78.3939 281.7210 15.08890460 50820,6917.726,95.434,540.562,538.621,0.0
51757.0,STARLINK-3459,PAYLOAD,2023-01-19 18:24:28,15.08861523,0.0001939,53.213,48.892,74.1093,286.0113,0.00079003,0.00012315,0.0,0 STARLINK-3459,1 51757U 22016AV  23019.76700219  .00012315  00000-0  79003-3 0  9997,2 51757  53.2130  48.8920 0001939  74.1093 286.0113 15.08861523 51970,6917.815,95.436,541.021,538.3380000000001,0.0
51757.0,STARLINK-3459,PAYLOAD,2023-01-20 02:21:25,15.088300899999998,0.0001512,53.2143,47.4091,107.9249,252.1908,0.00018858,2.714e-05,0.0,0 STARLINK-3459,1 51757U 22016AV  23020.09820602  .00002714  00000-0  18858-3 0  9997,2 51757  53.2143  47.4091 0001512 107.9249 252.1908 15.08830090 52021,6917.911,95.438,540.822,538.73,0.0
51757.0,STARLINK-3459,PAYLOAD,2023-01-20 08:42:57,15.0883959,0.000156,53.214,46.2199,99.8552,260.2616,0.00046245,7.079e-05,0.0,0 STARLINK-3459,1 51757U 22016AV  23020.36316624  .00007079  00000-0  46245-3 0  9991,2 51757  53.2140  46.2199 0001560  99.8552 260.2616 15.08839590 50953,6917.882,95.438,540.826,538.6669999999999,0.0
51757.0,STARLINK-3459,PAYLOAD,2023-01-21 05:22:58,15.08835186,0.0001737,53.214,42.3558,108.8812,251.2369,0.00023707,3.486e-05,0.0,0 STARLINK-3459,1 51757U 22016AV  23021.22429328  .00003486  00000-0  23707-3 0  9999,2 51757  53.2140  42.3558 0001737 108.8812 251.2369 15.08835186 52195,6917.895,95.438,540.962,538.558,0.0
51757.0,STARLINK-3459,PAYLOAD,2023-01-21 11:44:31,15.08847256,0.0001346,53.2134,41.162,96.356,263.7586,0.00050106,7.697e-05,0.0,0 STARLINK-3459,1 51757U 22016AV  23021.48924909  .00007697  00000-0  50106-3 0  9993,2 51757  53.2134  41.1620 0001346  96.3560 263.7586 15.08847256 52237,6917.858,95.437,540.654,538.7919999999999,0.0
51757.0,STARLINK-3459,PAYLOAD,2023-01-22 05:13:46,15.0883864,0.0001429,53.2125,37.8892,99.1057,261.0097,0.00027168,4.038e-05,0.0,0 STARLINK-3459,1 51757U 22016AV  23022.21789450  .00004038  00000-0  27168-3 0  9993,2 51757  53.2125  37.8892 0001429  99.1057 261.0097 15.08838640 52341,6917.885,95.438,540.738,538.761,0.0
51757.0,STARLINK-3459,PAYLOAD,2023-01-23 06:39:56,15.08840232,0.0001766999999999,53.2146,33.1338,79.122,280.9971,0.00023966,3.528e-05,0.0,0 STARLINK-3459,1 51757U 22016AV  23023.27773933  .00003528  00000-0  23966-3 0  9994,2 51757  53.2146  33.1338 0001767  79.1220 280.9971 15.08840232 52502,6917.88,95.438,540.967,538.5219999999999,0.0
51757.0,STARLINK-3459,PAYLOAD,2023-01-24 19:13:48,15.0884987,0.0001264999999999,53.2133,26.2922,90.0583,270.0554,0.00039506,6.007e-05,0.0,0 STARLINK-3459,1 51757U 22016AV  23024.80125824  .00006007  00000-0  39506-3 0  9996,2 51757  53.2133  26.2922 0001265  90.0583 270.0554 15.08849870 52736,6917.85,95.437,540.59,538.84,0.0
51757.0,STARLINK-3459,PAYLOAD,2023-01-25 06:21:31,15.08836607,0.0001072999999999,53.2141,24.21,95.2644,264.847,0.00015731,2.216e-05,0.0,0 STARLINK-3459,1 51757U 22016AV  23025.26494268  .00002216  00000-0  15731-3 0  9990,2 51757  53.2141  24.2100 0001073  95.2644 264.8470 15.08836607 52803,6917.891,95.438,540.498,539.013,0.0
51757.0,STARLINK-3459,PAYLOAD,2023-01-25 19:04:35,15.08843073,0.0001179,53.2142,21.8313,91.671,268.4417,0.00011301,1.511e-05,0.0,0 STARLINK-3459,1 51757U 22016AV  23025.79485891  .00001511  00000-0  11301-3 0  9996,2 51757  53.2142  21.8313 0001179  91.6710 268.4417 15.08843073 51775,6917.871,95.437,540.552,538.92,0.0
51757.0,STARLINK-3459,PAYLOAD,2023-01-26 09:23:03,15.08852812,0.0001255,53.214,19.1554,79.8338,280.2796,0.00017083,2.433e-05,0.0,0 STARLINK-3459,1 51757U 22016AV  23026.39101383  .00002433  00000-0  17083-3 0  9991,2 51757  53.2140  19.1554 0001255  79.8338 280.2796 15.08852812 51862,6917.840999999999,95.437,540.5740000000001,538.8380000000001,0.0
51757.0,STARLINK-3459,PAYLOAD,2023-01-26 18:55:23,15.0883704,0.0001044,53.2145,17.371,91.707,268.4042,0.00011287,1.509e-05,0.0,0 STARLINK-3459,1 51757U 22016AV  23026.78846112  .00001509  00000-0  11287-3 0  9993,2 51757  53.2145  17.3710 0001044  91.7070 268.4042 15.08837040 53032,6917.889,95.438,540.477,539.0319999999999,0.0
51757.0,STARLINK-3459,PAYLOAD,2023-01-27 06:03:04,15.08844765,0.0001238,53.2139,15.288,103.6131,256.4999,0.00019169,2.765e-05,0.0,0 STARLINK-3459,1 51757U 22016AV  23027.25213737  .00002765  00000-0  19169-3 0  9999,2 51757  53.2139  15.2880 0001238 103.6131 256.4999 15.08844765 51999,6917.866,95.437,540.587,538.874,0.0
51757.0,STARLINK-3459,PAYLOAD,2023-01-27 18:46:10,15.08836188,0.0001385999999999,53.2132,12.9091,103.6977,256.41700000000003,7.7122e-05,9.4e-06,0.0,0 STARLINK-3459,1 51757U 22016AV  23027.78206153  .00000940  00000-0  77122-4 0  9998,2 51757  53.2132  12.9091 0001386 103.6977 256.4170 15.08836188 52073,6917.892,95.438,540.716,538.798,0.0
51757.0,STARLINK-3459,PAYLOAD,2023-01-28 05:53:52,15.0882257,0.0001002999999999,53.2143,10.8283,98.02,262.0906,-0.00016892,-2.974e-05,0.0,0 STARLINK-3459,1 51757U 22016AV  23028.24574990 -.00002974  00000-0 -16892-3 0  9994,2 51757  53.2143  10.8283 0001003  98.0200 262.0906 15.08822570 53258,6917.934,95.439,540.493,539.105,0.0
51757.0,STARLINK-3459,PAYLOAD,2023-01-28 20:12:21,15.0883704,9.89e-05,53.2142,8.1519,100.2168,259.8935,0.00055807,8.604e-05,0.0,0 STARLINK-3459,1 51757U 22016AV  23028.84191257  .00008604  00000-0  55807-3 0  9994,2 51757  53.2142   8.1519 0000989 100.2168 259.8935 15.08837040 53344,6917.889,95.438,540.439,539.07,0.0
51757.0,STARLINK-3459,PAYLOAD,2023-01-29 08:55:26,15.08863966,9.78e-05,53.2139,5.7735,102.8201,257.2901,0.0012401,0.00019516,0.0,0 STARLINK-3459,1 51757U 22016AV  23029.37182923  .00019516  00000-0  12401-2 0  9999,2 51757  53.2139   5.7735 0000978 102.8201 257.2901 15.08863966 53427,6917.807,95.436,540.349,538.996,0.0
51757.0,STARLINK-3459,PAYLOAD,2023-01-29 21:38:30,15.08856543,9.86e-05,53.2137,3.3944,103.2229,256.8873,0.00049824,7.654e-05,0.0,0 STARLINK-3459,1 51757U 22016AV  23029.90174710  .00007654  00000-0  49824-3 0  9993,2 51757  53.2137   3.3944 0000986 103.2229 256.8873 15.08856543 53500,6917.83,95.437,540.377,539.013,0.0
51757.0,STARLINK-3459,PAYLOAD,2023-01-30 08:46:12,15.08859329,9.69e-05,53.2136,1.3123,100.0851,260.0251,0.00044507,6.806e-05,0.0,0 STARLINK-3459,1 51757U 22016AV  23030.36542313  .00006806  00000-0  44507-3 0  9994,2 51757  53.2136   1.3123 0000969 100.0851 260.0251 15.08859329 52469,6917.821,95.436,540.357,539.016,0.0
51757.0,STARLINK-3459,PAYLOAD,2023-01-30 21:29:17,15.08844014,0.0001291,53.2134,358.9323,95.7524,264.3615,0.00029003,4.331e-05,0.0,0 STARLINK-3459,1 51757U 22016AV  23030.89534580  .00004331  00000-0  29003-3 0  9994,2 51757  53.2134 358.9323 0001291  95.7524 264.3615 15.08844014 53654,6917.868,95.437,540.626,538.84,0.0
51757.0,STARLINK-3459,PAYLOAD,2023-01-31 07:01:36,15.0885589,0.0001173,53.2138,357.1475,99.7266,260.3858,0.00027123,4.033e-05,0.0,0 STARLINK-3459,1 51757U 22016AV  23031.29278048  .00004033  00000-0  27123-3 0  9993,2 51757  53.2138 357.1475 0001173  99.7266 260.3858 15.08855890 52606,6917.832,95.437,540.508,538.885,0.0
51757.0,STARLINK-3459,PAYLOAD,2023-02-01 03:41:37,15.0884619,0.0001223,53.2132,353.2818,88.8083,271.3049,0.00014061,1.951e-05,0.0,0 STARLINK-3459,1 51757U 22016AV  23032.15390241  .00001951  00000-0  14061-3 0  9992,2 51757  53.2132 353.2818 0001223  88.8083 271.3049 15.08846190 53844,6917.861,95.437,540.573,538.88,0.0
51757.0,STARLINK-3459,PAYLOAD,2023-02-01 06:52:23,15.08852299,0.0001295,53.2136,352.6872,85.5887,274.5253,0.00025646,3.797e-05,0.0,0 STARLINK-3459,1 51757U 22016AV  23032.28637941  .00003797  00000-0  25646-3 0  9998,2 51757  53.2136 352.6872 0001295  85.5887 274.5253 15.08852299 52754,6917.843,95.437,540.604,538.812,0.0
51757.0,STARLINK-3459,PAYLOAD,2023-02-02 06:43:10,15.08846628,0.0001295,53.2135,348.2259,91.2547,268.8593,0.00015769,2.223e-05,0.0,0 STARLINK-3459,1 51757U 22016AV  23033.27998069  .00002223  00000-0  15769-3 0  9997,2 51757  53.2135 348.2259 0001295  91.2547 268.8593 15.08846628 52909,6917.86,95.437,540.621,538.829,0.0
51757.0,STARLINK-3459,PAYLOAD,2023-02-02 22:37:01,15.08845648,0.0001182,53.2147,345.2544,83.39,276.7226,-2.3981e-06,-3.26e-06,0.0,0 STARLINK-3459,1 51757U 22016AV  23033.94237945 -.00000326  00000-0 -23981-5 0  9991,2 51757  53.2147 345.2544 0001182  83.3900 276.7226 15.08845648 54113,6917.863,95.437,540.546,538.91,0.0
51757.0,STARLINK-3459,PAYLOAD,2023-02-03 06:33:56,15.08854529,0.0001278,53.2148,343.7656,91.6699,268.4439,0.00029624,4.432e-05,0.0,0 STARLINK-3459,1 51757U 22016AV  23034.27357532  .00004432  00000-0  29624-3 0  9991,2 51757  53.2148 343.7656 0001278  91.6699 268.4439 15.08854529 54161,6917.836,95.437,540.585,538.817,0.0
51757.0,STARLINK-3459,PAYLOAD,2023-02-04 06:24:44,15.0884905,0.0001185,53.214,339.3055,103.6146,256.4978,0.00029593,4.426e-05,0.0,0 STARLINK-3459,1 51757U 22016AV  23035.26717987  .00004426  00000-0  29593-3 0  9993,2 51757  53.2140 339.3055 0001185 103.6146 256.4978 15.08849050 54310,6917.853,95.437,540.537,538.898,0.0
